[{"OBJECT_NAME":"HELIOS 1B","OBJECT_ID":"1999-064A","EPOCH":"2026-03-27T17:43:52.364064","MEAN_MOTION":14.87765219,"ECCENTRICITY":0.0001881,"INCLINATION":98.1674,"RA_OF_ASC_NODE":349.511,"ARG_OF_PERICENTER":49.7918,"MEAN_ANOMALY":310.3462,"EPHEMERIS_TYPE":0,"CLASSIFICATION_TYPE":"U","NORAD_CAT_ID":25977,"ELEMENT_SET_NO":999,"REV_AT_EPOCH":68794,"BSTAR":0.00017865,"MEAN_MOTION_DOT":1.572e-5,"MEAN_MOTION_DDOT":0},{"OBJECT_NAME":"TERRA","OBJECT_ID":"1999-068A","EPOCH":"2026-03-27T21:14:43.194624","MEAN_MOTION":14.61033348,"ECCENTRICITY":0.0003547,"INCLINATION":97.9555,"RA_OF_ASC_NODE":139.6215,"ARG_OF_PERICENTER":113.5733,"MEAN_ANOMALY":58.8636,"EPHEMERIS_TYPE":0,"CLASSIFICATION_TYPE":"U","NORAD_CAT_ID":25994,"ELEMENT_SET_NO":999,"REV_AT_EPOCH":39773,"BSTAR":9.3399e-5,"MEAN_MOTION_DOT":4.14e-6,"MEAN_MOTION_DDOT":0},{"OBJECT_NAME":"SL-16 R/B","OBJECT_ID":"2000-006B","EPOCH":"2026-03-27T16:12:27.648000","MEAN_MOTION":14.15826378,"ECCENTRICITY":0.0015802,"INCLINATION":71.0018,"RA_OF_ASC_NODE":60.0158,"ARG_OF_PERICENTER":161.6699,"MEAN_ANOMALY":198.4996,"EPHEMERIS_TYPE":0,"CLASSIFICATION_TYPE":"U","NORAD_CAT_ID":26070,"ELEMENT_SET_NO":999,"REV_AT_EPOCH":35110,"BSTAR":0.00018358,"MEAN_MOTION_DOT":3.14e-6,"MEAN_MOTION_DDOT":0},{"OBJECT_NAME":"TITAN 4B R/B","OBJECT_ID":"2000-047B","EPOCH":"2026-03-27T20:24:15.976224","MEAN_MOTION":15.09727624,"ECCENTRICITY":0.0039809,"INCLINATION":67.9913,"RA_OF_ASC_NODE":349.4392,"ARG_OF_PERICENTER":14.1332,"MEAN_ANOMALY":346.0921,"EPHEMERIS_TYPE":0,"CLASSIFICATION_TYPE":"U","NORAD_CAT_ID":26474,"ELEMENT_SET_NO":999,"REV_AT_EPOCH":39565,"BSTAR":0.0002335,"MEAN_MOTION_DOT":3.708e-5,"MEAN_MOTION_DDOT":0},{"OBJECT_NAME":"ENVISAT","OBJECT_ID":"2002-009A","EPOCH":"2026-03-27T21:21:31.305024","MEAN_MOTION":14.39043112,"ECCENTRICITY":0.0001214,"INCLINATION":98.3756,"RA_OF_ASC_NODE":40.0572,"ARG_OF_PERICENTER":81.5484,"MEAN_ANOMALY":294.3688,"EPHEMERIS_TYPE":0,"CLASSIFICATION_TYPE":"U","NORAD_CAT_ID":27386,"ELEMENT_SET_NO":999,"REV_AT_EPOCH":26179,"BSTAR":5.3428e-5,"MEAN_MOTION_DOT":1.22e-6,"MEAN_MOTION_DDOT":0},{"OBJECT_NAME":"IDEFIX & ARIANE 42P R/B","OBJECT_ID":"2002-021B","EPOCH":"2026-03-27T19:33:20.045376","MEAN_MOTION":14.31038046,"ECCENTRICITY":0.0012553,"INCLINATION":98.589,"RA_OF_ASC_NODE":25.2067,"ARG_OF_PERICENTER":130.2966,"MEAN_ANOMALY":229.9316,"EPHEMERIS_TYPE":0,"CLASSIFICATION_TYPE":"U","NORAD_CAT_ID":27422,"ELEMENT_SET_NO":999,"REV_AT_EPOCH":24661,"BSTAR":0.00012051,"MEAN_MOTION_DOT":2.74e-6,"MEAN_MOTION_DDOT":0},{"OBJECT_NAME":"AQUA","OBJECT_ID":"2002-022A","EPOCH":"2026-03-27T21:10:06.542688","MEAN_MOTION":14.62017125,"ECCENTRICITY":0.0001092,"INCLINATION":98.4204,"RA_OF_ASC_NODE":54.5826,"ARG_OF_PERICENTER":117.9648,"MEAN_ANOMALY":263.3257,"EPHEMERIS_TYPE":0,"CLASSIFICATION_TYPE":"U","NORAD_CAT_ID":27424,"ELEMENT_SET_NO":999,"REV_AT_EPOCH":27139,"BSTAR":0.00020338,"MEAN_MOTION_DOT":9.71e-6,"MEAN_MOTION_DDOT":0},{"OBJECT_NAME":"CZ-4B R/B","OBJECT_ID":"2002-024C","EPOCH":"2026-03-27T18:22:25.846752","MEAN_MOTION":14.14550756,"ECCENTRICITY":0.0049554,"INCLINATION":98.88,"RA_OF_ASC_NODE":140.0781,"ARG_OF_PERICENTER":332.7797,"MEAN_ANOMALY":137.1452,"EPHEMERIS_TYPE":0,"CLASSIFICATION_TYPE":"U","NORAD_CAT_ID":27432,"ELEMENT_SET_NO":999,"REV_AT_EPOCH":23179,"BSTAR":3.9375e-5,"MEAN_MOTION_DOT":3.2e-7,"MEAN_MOTION_DDOT":0},{"OBJECT_NAME":"MIDORI II (ADEOS-II)","OBJECT_ID":"2002-056A","EPOCH":"2026-03-27T19:04:34.220064","MEAN_MOTION":14.29298226,"ECCENTRICITY":7.99e-5,"INCLINATION":98.7799,"RA_OF_ASC_NODE":45.4011,"ARG_OF_PERICENTER":21.3866,"MEAN_ANOMALY":338.7349,"EPHEMERIS_TYPE":0,"CLASSIFICATION_TYPE":"U","NORAD_CAT_ID":27597,"ELEMENT_SET_NO":999,"REV_AT_EPOCH":21288,"BSTAR":0.00013331,"MEAN_MOTION_DOT":2.94e-6,"MEAN_MOTION_DDOT":0},{"OBJECT_NAME":"H-2A R/B","OBJECT_ID":"2002-056E","EPOCH":"2026-03-27T20:24:42.859584","MEAN_MOTION":14.33772439,"ECCENTRICITY":0.007134,"INCLINATION":98.3232,"RA_OF_ASC_NODE":46.5281,"ARG_OF_PERICENTER":107.1534,"MEAN_ANOMALY":306.9515,"EPHEMERIS_TYPE":0,"CLASSIFICATION_TYPE":"U","NORAD_CAT_ID":27601,"ELEMENT_SET_NO":999,"REV_AT_EPOCH":21671,"BSTAR":0.00011825,"MEAN_MOTION_DOT":2.97e-6,"MEAN_MOTION_DDOT":0},{"OBJECT_NAME":"CZ-4B R/B","OBJECT_ID":"2003-049C","EPOCH":"2026-03-27T17:52:01.623936","MEAN_MOTION":14.55035729,"ECCENTRICITY":0.0048216,"INCLINATION":98.6892,"RA_OF_ASC_NODE":82.3599,"ARG_OF_PERICENTER":175.2412,"MEAN_ANOMALY":184.9252,"EPHEMERIS_TYPE":0,"CLASSIFICATION_TYPE":"U","NORAD_CAT_ID":28059,"ELEMENT_SET_NO":999,"REV_AT_EPOCH":18922,"BSTAR":8.5736e-5,"MEAN_MOTION_DOT":3.24e-6,"MEAN_MOTION_DDOT":0},{"OBJECT_NAME":"CZ-2C R/B","OBJECT_ID":"2004-012C","EPOCH":"2026-03-27T18:16:08.861952","MEAN_MOTION":15.66684304,"ECCENTRICITY":0.0013223,"INCLINATION":97.7185,"RA_OF_ASC_NODE":153.7924,"ARG_OF_PERICENTER":237.0962,"MEAN_ANOMALY":122.9026,"EPHEMERIS_TYPE":0,"CLASSIFICATION_TYPE":"U","NORAD_CAT_ID":28222,"ELEMENT_SET_NO":999,"REV_AT_EPOCH":20710,"BSTAR":0.00054228,"MEAN_MOTION_DOT":0.00057286,"MEAN_MOTION_DDOT":0},{"OBJECT_NAME":"SL-16 R/B","OBJECT_ID":"2004-021B","EPOCH":"2026-03-27T16:49:16.610016","MEAN_MOTION":14.14594347,"ECCENTRICITY":0.0004912,"INCLINATION":71.0007,"RA_OF_ASC_NODE":194.695,"ARG_OF_PERICENTER":347.8061,"MEAN_ANOMALY":12.2942,"EPHEMERIS_TYPE":0,"CLASSIFICATION_TYPE":"U","NORAD_CAT_ID":28353,"ELEMENT_SET_NO":999,"REV_AT_EPOCH":12538,"BSTAR":0.0001007,"MEAN_MOTION_DOT":1.46e-6,"MEAN_MOTION_DDOT":0},{"OBJECT_NAME":"CZ-4B R/B","OBJECT_ID":"2004-035C","EPOCH":"2026-03-27T20:07:14.788704","MEAN_MOTION":15.29370387,"ECCENTRICITY":0.0029984,"INCLINATION":97.3475,"RA_OF_ASC_NODE":120.8646,"ARG_OF_PERICENTER":263.636,"MEAN_ANOMALY":96.1466,"EPHEMERIS_TYPE":0,"CLASSIFICATION_TYPE":"U","NORAD_CAT_ID":28415,"ELEMENT_SET_NO":999,"REV_AT_EPOCH":18268,"BSTAR":0.0002825,"MEAN_MOTION_DOT":8.079e-5,"MEAN_MOTION_DDOT":0},{"OBJECT_NAME":"CZ-2C R/B","OBJECT_ID":"2004-046B","EPOCH":"2026-03-27T18:52:30.539712","MEAN_MOTION":14.26998277,"ECCENTRICITY":0.0140582,"INCLINATION":98.1976,"RA_OF_ASC_NODE":0.643,"ARG_OF_PERICENTER":101.263,"MEAN_ANOMALY":260.4388,"EPHEMERIS_TYPE":0,"CLASSIFICATION_TYPE":"U","NORAD_CAT_ID":28480,"ELEMENT_SET_NO":999,"REV_AT_EPOCH":11108,"BSTAR":5.7408e-5,"MEAN_MOTION_DOT":1.15e-6,"MEAN_MOTION_DDOT":0},{"OBJECT_NAME":"ARIANE 5 R/B","OBJECT_ID":"2004-049H","EPOCH":"2026-03-27T11:38:30.676128","MEAN_MOTION":14.85296655,"ECCENTRICITY":0.0082945,"INCLINATION":98.2654,"RA_OF_ASC_NODE":255.6117,"ARG_OF_PERICENTER":293.7527,"MEAN_ANOMALY":65.5003,"EPHEMERIS_TYPE":0,"CLASSIFICATION_TYPE":"U","NORAD_CAT_ID":28499,"ELEMENT_SET_NO":999,"REV_AT_EPOCH":14843,"BSTAR":8.8994e-5,"MEAN_MOTION_DOT":7.46e-6,"MEAN_MOTION_DDOT":0},{"OBJECT_NAME":"CZ-2D R/B","OBJECT_ID":"2005-024B","EPOCH":"2026-03-27T18:53:25.583424","MEAN_MOTION":15.61774473,"ECCENTRICITY":0.0002607,"INCLINATION":97.3587,"RA_OF_ASC_NODE":102.6184,"ARG_OF_PERICENTER":344.2824,"MEAN_ANOMALY":15.8352,"EPHEMERIS_TYPE":0,"CLASSIFICATION_TYPE":"U","NORAD_CAT_ID":28738,"ELEMENT_SET_NO":999,"REV_AT_EPOCH":14260,"BSTAR":0.00051546,"MEAN_MOTION_DOT":0.00044619,"MEAN_MOTION_DDOT":0}]
